[{"OBJECT_NAME":"STARLINK-5192","OBJECT_ID":"2022-136Z","EPOCH":"2026-03-09T21:59:53.069280","MEAN_MOTION":15.08832134,"ECCENTRICITY":0.00014424,"INCLINATION":53.2184,"RA_OF_ASC_NODE":342.7199,"ARG_OF_PERICENTER":91.7596,"MEAN_ANOMALY":268.3562,"EPHEMERIS_TYPE":0,"CLASSIFICATION_TYPE":"U","NORAD_CAT_ID":54074,"ELEMENT_SET_NO":999,"REV_AT_EPOCH":18688,"BSTAR":-4.401603e-5,"MEAN_MOTION_DOT":-9.88e-6,"MEAN_MOTION_DDOT":0},{"OBJECT_NAME":"OBJECT T","OBJECT_ID":"2018-099T","EPOCH":"2026-03-09T14:32:29.418720","MEAN_MOTION":15.09436097,"ECCENTRICITY":0.0004517,"INCLINATION":97.4347,"RA_OF_ASC_NODE":115.9313,"ARG_OF_PERICENTER":320.9739,"MEAN_ANOMALY":39.1164,"EPHEMERIS_TYPE":0,"CLASSIFICATION_TYPE":"U","NORAD_CAT_ID":43775,"ELEMENT_SET_NO":999,"REV_AT_EPOCH":39729,"BSTAR":0.00032877,"MEAN_MOTION_DOT":5.2e-5,"MEAN_MOTION_DDOT":0}]
